LEMUR-2-GREENBERG       
1 42837U 17042N   26068.46200528  .00019778  00000+0  72539-3 0  9997
2 42837  97.3781 249.8007 0009157   4.0119 356.1192 15.27971352473146
STARLINK-30410          
1 57841U 23141B   26068.87208601  .00000703  00000+0  35869-4 0  9994
2 57841  53.1598 283.2442 0001393 103.3134 256.8022 15.30191856140351
